MOLNIYA 2-9             
1 07276U 74026A   15040.10770422  .00017650  55228-7  72255-3 0  9996
2 07276  62.4458 340.8051 7195973 277.9103  13.0807  2.42726372183606
MOLNIYA 2-10            
1 07376U 74056A   15039.56704197 -.00000940  00000-0  92053-3 0  9998
2 07376  61.5677  86.6826 7455206 278.5273 346.0622  2.00662160296391
MOLNIYA 1-S             
1 07392U 74060A   15037.74871618 -.00000343  00000-0  00000+0 0  9996
2 07392  10.5629 317.0930 0011173 149.3116  46.0110  1.00293972 92564
MOLNIYA 1-29            
1 07780U 75036A   15040.65462927  .00000116  00000-0 -30956-3 0  9999
2 07780  61.8302 263.5586 7373211 260.2835  17.4126  2.00698345291784
MOLNIYA 2-13            
1 08015U 75063A   15039.60096061 -.00001226  00000-0  41722-3 0  9992
2 08015  61.9825 269.6754 7403339 255.6058  19.1290  2.00971013290091
MOLNIYA 2-14            
1 08195U 75081A   15034.59553740 -.00000000  00000-0 -49633-3 0  9995
2 08195  61.5240 239.1047 7375285 261.3013  16.9682  2.00531229288758
MOLNIYA 3-3             
1 08425U 75105A   15040.11278853  .00000009  00000-0 -34804-3 0  9994
2 08425  61.5913 264.3588 7416222 252.1334 350.2151  2.00710790287501
MOLNIYA 1-32            
1 08601U 76006A   15039.25516912 -.00000914  00000-0  00000+0 0  9997
2 08601  62.7695 334.6084 7378721 260.1428 347.9307  1.99942996285273
MOLNIYA 2-17            
1 09829U 77010A   15040.49985475 -.00001265  00000-0  00000+0 0  9998
2 09829  63.0898   4.3565 7340056 246.0872 124.9791  2.00557688278428
MOLNIYA 1-36            
1 09880U 77021A   15039.75181997 -.00001517  00000-0  34561-4 0  9995
2 09880  62.5020 330.7624 7424455 255.2597  19.1835  2.00755033175570
MOLNIYA 3-7             
1 09941U 77032A   15039.81862634 -.00001030  00000-0 -68745-3 0  9997
2 09941  62.6482 339.5029 7404876 248.4467  22.8937  2.00645064276862
MOLNIYA 3-8             
1 10455U 77105A   15038.05914931  .00000206  00000-0 -57154-4 0  9999
2 10455  62.9992  40.2926 7364606 259.1581  18.0304  2.00858247273150
MOLNIYA 1-40            
1 10925U 78055A   15040.31816565  .00000465  00000-0  00000+0 0  9991
2 10925  62.5834  73.0103 7336425 262.5390 138.2090  2.00531908268847
MOLNIYA 1-42            
1 11007U 78080A   15040.31145179  .00003247  00000-0  12681-2 0  9999
2 11007  62.3878 108.6587 7245787 254.8369  21.1418  2.31501308287251
MOLNIYA 3-10            
1 11057U 78095A   15039.52619331  .00000164  00000-0 -74787-3 0  9999
2 11057  62.5295 187.5329 7035509 259.9907  20.7770  2.34204203290633
MOLNIYA 1-44            
1 11474U 79070A   15041.22932507  .00127855  14072-5  86463-3 0  9998
2 11474  62.1054 310.9300 2531854 223.2547 325.2359 10.49783208466137
MOLNIYA 3-13            
1 11896U 80063A   15038.88512508  .00000125  00000-0  00000+0 0  9993
2 11896  62.8311 165.4140 7102106 262.6455  18.9665  2.00611946253246
MOLNIYA 1-49            
1 12156U 81009A   15040.28197853 -.00000074  00000-0  00000+0 0  9997
2 12156  64.5719 169.0342 6589497 257.1455  38.2340  2.05698354166297
MOLNIYA 1-52            
1 13012U 81123A   15039.65072454 -.00000793  00000-0  15873-1 0  9998
2 13012  64.5311 236.0426 6575835 265.9286 123.0072  2.00726349242779
MOLNIYA 1-53            
1 13070U 82015A   15041.07291900 -.00000169  00000-0 -65674-2 0  9994
2 13070  62.7840 254.6613 7184562 261.3689 347.6650  2.00678344241399
MOLNIYA 3-20            
1 13875U 83015A   15040.03334704 -.00001084  00000-0 -11781-1 0  9999
2 13875  64.1775 316.5520 6988512 269.2364 230.3557  2.00738028169886
MOLNIYA 1-56            
1 13890U 83019A   15040.30194214 -.00001102  00000-0  00000+0 0  9990
2 13890  63.9572 358.7790 7133182 266.9821 346.6773  1.99859813232931
MOLNIYA 1-62            
1 15214U 84089A   15039.54075312  .00000119  00000-0 -30973-2 0  9993
2 15214  63.8330  37.2318 7267094 262.3408 252.3634  1.97953477191099
MOLNIYA 1-63            
1 15429U 84124A   15040.10989807 -.00001068  00000-0  00000+0 0  9997
2 15429  63.5377  94.4522 6829248 276.0175  16.4610  2.00778602220933
MOLNIYA 3-24            
1 15738U 85040A   15039.45540219  .00000129  00000-0 -40764-2 0  9995
2 15738  64.4116 150.6947 6333470 276.6097 217.3642  2.55628526235245
MOLNIYA 3-27            
1 16393U 85117A   15038.53347693 -.00000153  00000-0 -45843-1 0  9997
2 16393  64.3890  19.0975 6879072 283.0514 187.0694  2.12399786217133
MOLNIYA 1-69            
1 17078U 86089A   15041.10617049 -.00000140  00000-0 -21592-1 0  9990
2 17078  63.6965 119.0282 6818505 278.9847  69.0067  2.00672641206971
MOLNIYA 3-31            
1 17328U 87008A   15039.41177913  .00000099  00000-0 -68660-1 0  9991
2 17328  63.8778  67.9133 6970644 276.2078 216.5254  2.00671995202018
MOLNIYA 1-71            
1 18946U 88017A   15039.54896955 -.00000274  00000-0 -65765-1 0  9996
2 18946  63.8004  82.6760 7002185 273.4813 303.5555  2.00648519197212
MOLNIYA 1-75            
1 19807U 89014A   15038.62129907  .00001029  00000-0  30337-1 0  9999
2 19807  63.4525 230.7099 6989146 283.0121  12.8801  2.00217583190213
MOLNIYA 1-80            
1 21118U 91012A   15040.32941817  .00000889  00000-0  48106-4 0  9999
2 21118  62.5596 303.0259 7388599 287.5274 219.9404  2.05223556175905
MOLNIYA 3-40            
1 21196U 91022A   15036.79875561  .00000454  00000-0 -42440-3 0  9997
2 21196  62.8120 285.8766 7347824 288.8490   9.5775  2.03019342175084
MOLNIYA 1-81            
1 21426U 91043A   15040.76391361 -.00000007  00000-0 -35432-2 0  9996
2 21426  63.2354 299.8381 7261175 283.6775  13.9604  2.00639556173298
MOLNIYA 3-41            
1 21706U 91065A   15037.59555706  .00000907  00000-0 -17217-1 0  9991
2 21706  63.6754 121.6891 6924363 280.6286 152.2676  2.04352346172000
MOLNIYA 3-42            
1 22178U 92067A   15037.47730961  .00000128  00000-0  15715-2 0  9999
2 22178  63.0307 210.5618 7036314 288.8809  13.0708  2.20432583165270
MOLNIYA 1-86            
1 22671U 93035A   15040.27386874  .00004537  00000-0  11503-2 0  9994
2 22671  62.8966   6.2633 4984658 320.3120  38.7475  5.61035136201212
MOLNIYA 1-87            
1 22949U 93079A   15041.20129707 -.00000838  00000-0  88196-3 0  9998
2 22949  61.6399 104.3097 7422042 272.6543 143.1659  2.00537270154933
MOLNIYA 1-88            
1 23420U 94081A   15039.36799853  .00000239  00000-0  30025-3 0  9998
2 23420  62.7274 162.9950 6374103 294.6486  13.3917  3.34467906157094
MOLNIYA 3-47            
1 23642U 95042A   15040.59571104 -.00000000  00000-0  10001-2 0  9994
2 23642  61.9591  80.8139 7453642 273.4754 347.0410  2.00677036142931
MOLNIYA 1-90            
1 24960U 97054A   15040.02324716  .00001146  00000-0  10245-2 0  9997
2 24960  61.9529 111.3021 7424962 273.1249  12.6811  2.04695424127854
MOLNIYA 1-91            
1 25485U 98054A   15041.59316427 -.00000254  00000-0  84768-3 0  9996
2 25485  62.0359 251.1075 7378624 261.3052  15.5501  2.00704573119925
MOLNIYA 3-50            
1 25847U 99036A   15037.97587701 -.00000430  00000-0 -15181-2 0  9990
2 25847  62.9895  21.3385 7368322 258.6452  18.2476  2.00635359114199
MOLNIYA 3-51            
1 26867U 01030A   15040.56194284  .00005863  00000-0  89754-3 0  9990
2 26867  62.5446 249.2007 7109122 259.9479  18.3986  2.51156429101012
MOLNIYA 1-93            
1 28163U 04005A   15039.04323316  .00000099  00000-0  44934-3 0  9994
2 28163  64.0681  41.1173 7453578 244.2516  24.8656  2.00652236 80394
